[{"OBJECT_NAME":"STARLINK-33708","OBJECT_ID":"2025-065G","EPOCH":"2026-03-09T10:40:42.943872","MEAN_MOTION":15.27608857,"ECCENTRICITY":0.00019877,"INCLINATION":42.9991,"RA_OF_ASC_NODE":108.3593,"ARG_OF_PERICENTER":266.6574,"MEAN_ANOMALY":93.405,"EPHEMERIS_TYPE":0,"CLASSIFICATION_TYPE":"U","NORAD_CAT_ID":63405,"ELEMENT_SET_NO":999,"REV_AT_EPOCH":5280,"BSTAR":0.0011247805,"MEAN_MOTION_DOT":0.00030847,"MEAN_MOTION_DDOT":0},{"OBJECT_NAME":"COSMOS 2251 DEB","OBJECT_ID":"1993-036AWN","EPOCH":"2026-03-09T06:26:08.321568","MEAN_MOTION":15.11257706,"ECCENTRICITY":0.00842289,"INCLINATION":74.0116,"RA_OF_ASC_NODE":284.5024,"ARG_OF_PERICENTER":350.308,"MEAN_ANOMALY":9.6482,"EPHEMERIS_TYPE":0,"CLASSIFICATION_TYPE":"U","NORAD_CAT_ID":35996,"ELEMENT_SET_NO":999,"REV_AT_EPOCH":73632,"BSTAR":0.00055219842,"MEAN_MOTION_DOT":0.00010085,"MEAN_MOTION_DDOT":0}]
